NORAD_CAT_ID,OBJECT_NAME,OBJECT_TYPE,EPOCH,MEAN_MOTION,ECCENTRICITY,INCLINATION,RA_OF_ASC_NODE,ARG_OF_PERICENTER,MEAN_ANOMALY,BSTAR,MEAN_MOTION_DOT,MEAN_MOTION_DDOT,TLE_LINE0,TLE_LINE1,TLE_LINE2,SEMIMAJOR_AXIS,PERIOD,APOGEE,PERIGEE,DECAYED
53849.0,STARLINK-4770,PAYLOAD,2023-12-11 08:46:55,15.08839296,0.0001558,53.2192,12.0553,106.7434,253.3729,3.6701e-05,2.96e-06,0.0,0 STARLINK-4770,1 53849U 22114AH  23345.36592227  .00000296  00000-0  36701-4 0  9990,2 53849  53.2192  12.0553 0001558 106.7434 253.3729 15.08839296 68740,6917.883,95.438,540.825,538.67,0.0
53849.0,STARLINK-4770,PAYLOAD,2023-12-12 07:02:19,15.08838817,0.000143,53.2179,7.8969,93.6533,266.4623,0.00012468,1.697e-05,0.0,0 STARLINK-4770,1 53849U 22114AH  23346.29328283  .00001697  00000-0  12468-3 0  9991,2 53849  53.2179   7.8969 0001430  93.6533 266.4623 15.08838817 69423,6917.884,95.438,540.738,538.76,0.0
53849.0,STARLINK-4770,PAYLOAD,2023-12-13 08:28:30,15.08839287,0.0001473,53.2184,3.1426,102.6677,257.4479,8.0781e-05,9.98e-06,0.0,0 STARLINK-4770,1 53849U 22114AH  23347.35312544  .00000998  00000-0  80781-4 0  9999,2 53849  53.2184   3.1426 0001473 102.6677 257.4479 15.08839287 69042,6917.883,95.438,540.767,538.729,0.0
53849.0,STARLINK-4770,PAYLOAD,2023-12-14 08:19:17,15.08839984,0.0001453,53.2184,358.6804,92.7104,267.4055,6.0407e-05,6.74e-06,0.0,0 STARLINK-4770,1 53849U 22114AH  23348.34672760  .00000674  00000-0  60407-4 0  9992,2 53849  53.2184 358.6804 0001453  92.7104 267.4055 15.08839984 69733,6917.88,95.438,540.751,538.74,0.0
53849.0,STARLINK-4770,PAYLOAD,2023-12-15 04:59:17,15.08842519,0.0001464,53.2187,354.8125,90.27,269.846,9.8092e-05,1.274e-05,0.0,0 STARLINK-4770,1 53849U 22114AH  23349.20784487  .00001274  00000-0  98092-4 0  9996,2 53849  53.2187 354.8125 0001464  90.2700 269.8460 15.08842519 69326,6917.873,95.437,540.75,538.725,0.0
53849.0,STARLINK-4770,PAYLOAD,2023-12-15 08:10:03,15.08846807,0.0001507,53.2187,354.2174,85.2066,274.9099,0.00013583,1.875e-05,0.0,0 STARLINK-4770,1 53849U 22114AH  23349.34032179  .00001875  00000-0  13583-3 0  9993,2 53849  53.2187 354.2174 0001507  85.2066 274.9099 15.08846807 69881,6917.86,95.437,540.767,538.682,0.0
53849.0,STARLINK-4770,PAYLOAD,2023-12-16 08:00:51,15.08837815,0.0001269,53.2185,349.7599,105.3765,254.7367,4.2498e-05,3.89e-06,0.0,0 STARLINK-4770,1 53849U 22114AH  23350.33393212  .00000389  00000-0  42498-4 0  9999,2 53849  53.2185 349.7599 0001269 105.3765 254.7367 15.08837815 69494,6917.887,95.438,540.63,538.874,0.0
53849.0,STARLINK-4770,PAYLOAD,2023-12-16 20:43:56,15.08844055,0.0001261,53.2181,347.3807,92.9247,267.1889,-6.8135e-06,-3.96e-06,0.0,0 STARLINK-4770,1 53849U 22114AH  23350.86385186 -.00000396  00000-0 -68135-5 0  9995,2 53849  53.2181 347.3807 0001261  92.9247 267.1889 15.08844055 70116,6917.868,95.437,540.605,538.861,0.0
53849.0,STARLINK-4770,PAYLOAD,2023-12-17 06:16:15,15.08847049,0.0001351,53.2173,345.5974,94.5574,265.5573,0.00012446,1.694e-05,0.0,0 STARLINK-4770,1 53849U 22114AH  23351.26128851  .00001694  00000-0  12446-3 0  9996,2 53849  53.2173 345.5974 0001351  94.5574 265.5573 15.08847049 69636,6917.859,95.437,540.658,538.789,0.0
53849.0,STARLINK-4770,PAYLOAD,2023-12-18 06:07:02,15.08854606,0.0001448,53.2171,341.1402,74.0808,286.0344,0.00034063,5.139e-05,0.0,0 STARLINK-4770,1 53849U 22114AH  23352.25488462  .00005139  00000-0  34063-3 0  9990,2 53849  53.2171 341.1402 0001448  74.0808 286.0344 15.08854606 70321,6917.836,95.437,540.702,538.699,0.0
53849.0,STARLINK-4770,PAYLOAD,2023-12-19 04:22:26,15.08837193,0.0001565,53.2182,336.9781,107.8487,252.2676,-3.8885e-05,-9.07e-06,0.0,0 STARLINK-4770,1 53849U 22114AH  23353.18225186 -.00000907  00000-0 -38885-4 0  9992,2 53849  53.2182 336.9781 0001565 107.8487 252.2676 15.08837193 69922,6917.889,95.438,540.837,538.671,0.0
53849.0,STARLINK-4770,PAYLOAD,2023-12-20 05:48:36,15.08841141,0.0001654,53.2179,332.2155,107.6622,252.4551,0.00015935,2.249e-05,0.0,0 STARLINK-4770,1 53849U 22114AH  23354.24209488  .00002249  00000-0  15935-3 0  9996,2 53849  53.2179 332.2155 0001654 107.6622 252.4551 15.08841141 70081,6917.877,95.437,540.886,538.598,0.0
53849.0,STARLINK-4770,PAYLOAD,2023-12-21 04:04:00,15.08850798,0.0001573,53.2169,328.048,91.3967,268.7206,0.00037755,5.728e-05,0.0,0 STARLINK-4770,1 53849U 22114AH  23355.16945412  .00005728  00000-0  37755-3 0  9991,2 53849  53.2169 328.0480 0001573  91.3967 268.7206 15.08850798 70765,6917.847,95.437,540.801,538.624,0.0
53849.0,STARLINK-4770,PAYLOAD,2023-12-22 03:54:47,15.08841991,0.0001509,53.2167,323.5875,98.7247,261.3916,6.5064e-05,7.48e-06,0.0,0 STARLINK-4770,1 53849U 22114AH  23356.16305547  .00000748  00000-0  65064-4 0  9993,2 53849  53.2167 323.5875 0001509  98.7247 261.3916 15.08841991 70371,6917.874,95.437,540.783,538.695,0.0
53849.0,STARLINK-4770,PAYLOAD,2023-12-22 05:30:11,15.08843041,0.0001526,53.2168,323.2907,81.3358,278.7807,0.00012001,1.623e-05,0.0,0 STARLINK-4770,1 53849U 22114AH  23356.22929638  .00001623  00000-0  12001-3 0  9998,2 53849  53.2168 323.2907 0001526  81.3358 278.7807 15.08843041 70925,6917.871,95.437,540.792,538.68,0.0
53849.0,STARLINK-4770,PAYLOAD,2023-12-23 06:56:21,15.08847554,0.0001696,53.2176,318.5313,72.6981,287.4196,0.00023329,3.427e-05,0.0,0 STARLINK-4770,1 53849U 22114AH  23357.28913702  .00003427  00000-0  23329-3 0  9999,2 53849  53.2176 318.5313 0001696  72.6981 287.4196 15.08847554 70544,6917.857,95.437,540.896,538.549,0.0
53849.0,STARLINK-4770,PAYLOAD,2023-12-23 21:14:50,15.08837025,0.0001864,53.2165,315.8628,77.3291,282.7909,0.0001133,1.515e-05,0.0,0 STARLINK-4770,1 53849U 22114AH  23357.88530476  .00001515  00000-0  11330-3 0  9993,2 53849  53.2165 315.8628 0001864  77.3291 282.7909 15.08837025 71176,6917.889,95.438,541.044,538.465,0.0
53849.0,STARLINK-4770,PAYLOAD,2023-12-24 03:36:22,15.08839492,0.0001711,53.2164,314.6751,72.8397,287.2782,0.00015966,2.254e-05,0.0,0 STARLINK-4770,1 53849U 22114AH  23358.15026439  .00002254  00000-0  15966-3 0  9993,2 53849  53.2164 314.6751 0001711  72.8397 287.2782 15.08839492 70670,6917.882,95.438,540.931,538.563,0.0
53849.0,STARLINK-4770,PAYLOAD,2023-12-24 06:47:08,15.08845383,0.0001852,53.2167,314.0766,100.7927,259.3273,0.00024137,3.556e-05,0.0,0 STARLINK-4770,1 53849U 22114AH  23358.28274004  .00003556  00000-0  24137-3 0  9996,2 53849  53.2167 314.0766 0001852 100.7927 259.3273 15.08845383 70692,6917.864,95.437,541.01,538.448,0.0
53849.0,STARLINK-4770,PAYLOAD,2023-12-25 03:27:10,15.08832423,0.0001496,53.2171,310.2059,104.9568,255.159,1.1989e-05,-9.7e-07,0.0,0 STARLINK-4770,1 53849U 22114AH  23359.14386856 -.00000097  00000-0  11989-4 0  9991,2 53849  53.2171 310.2059 0001496 104.9568 255.1590 15.08832423 70823,6917.904,95.438,540.803,538.734,0.0
53849.0,STARLINK-4770,PAYLOAD,2023-12-25 06:37:56,15.08826204,0.0001825,53.2179,309.6086,116.7419,243.376,-0.00011288,-2.083e-05,0.0,0 STARLINK-4770,1 53849U 22114AH  23359.27635098 -.00002083  00000-0 -11288-3 0  9999,2 53849  53.2179 309.6086 0001825 116.7419 243.3760 15.08826204 71385,6917.923,95.438,541.05,538.525,0.0
53849.0,STARLINK-4770,PAYLOAD,2023-12-26 03:17:56,15.08856354,0.0001929,53.2185,305.7472,80.8645,279.2565,0.00025383,3.756e-05,0.0,0 STARLINK-4770,1 53849U 22114AH  23360.13745956  .00003756  00000-0  25383-3 0  9998,2 53849  53.2185 305.7472 0001929  80.8645 279.2565 15.08856354 70979,6917.83,95.437,541.03,538.361,0.0
53849.0,STARLINK-4770,PAYLOAD,2023-12-26 06:28:42,15.08861194,0.0001785,53.2181,305.1509,85.8263,274.2934,0.00030532,4.577e-05,0.0,0 STARLINK-4770,1 53849U 22114AH  23360.26993559  .00004577  00000-0  30532-3 0  9990,2 53849  53.2181 305.1509 0001785  85.8263 274.2934 15.08861194 71537,6917.816,95.436,540.915,538.446,0.0
53849.0,STARLINK-4770,PAYLOAD,2023-12-26 20:47:11,15.08843047,0.000167,53.2179,302.4674,100.1619,259.9562,0.00021433,3.125e-05,0.0,0 STARLINK-4770,1 53849U 22114AH  23360.86610366  .00003125  00000-0  21433-3 0  9996,2 53849  53.2179 302.4674 0001670 100.1619 259.9562 15.08843047 71620,6917.871,95.437,540.891,538.581,0.0
53849.0,STARLINK-4770,PAYLOAD,2023-12-27 03:08:43,15.08840834,0.0001555,53.2175,301.2789,89.7515,270.3655,0.00019882,2.878e-05,0.0,0 STARLINK-4770,1 53849U 22114AH  23361.13106463  .00002878  00000-0  19882-3 0  9994,2 53849  53.2175 301.2789 0001555  89.7515 270.3655 15.08840834 71125,6917.878,95.438,540.819,538.667,0.0
53849.0,STARLINK-4770,PAYLOAD,2023-12-27 06:19:30,15.08841317,0.0001663,53.218,300.6914,102.3012,257.8167,0.00016374,2.319e-05,0.0,0 STARLINK-4770,1 53849U 22114AH  23361.26354544  .00002319  00000-0  16374-3 0  9996,2 53849  53.2180 300.6914 0001663 102.3012 257.8167 15.08841317 71684,6917.876,95.437,540.892,538.591,0.0
53849.0,STARLINK-4770,PAYLOAD,2023-12-28 01:24:06,15.08856735,0.0002369,53.2176,297.1236,136.5493,223.5686,1.8061e-05,-1e-08,0.0,0 STARLINK-4770,1 53849U 22114AH  23362.05841243 -.00000001  00000-0  18061-4 0  9994,2 53849  53.2176 297.1236 0002369 136.5493 223.5686 15.08856735 71262,6917.829,95.436,541.333,538.055,0.0
53849.0,STARLINK-4770,PAYLOAD,2023-12-28 06:10:16,15.08852026,0.000167,53.2166,296.2329,120.9199,239.1958,-2.1288e-05,-6.27e-06,0.0,0 STARLINK-4770,1 53849U 22114AH  23362.25713483 -.00000627  00000-0 -21288-4 0  9990,2 53849  53.2166 296.2329 0001670 120.9199 239.1958 15.08852026 71835,6917.844,95.437,540.864,538.553,0.0
53849.0,STARLINK-4770,PAYLOAD,2023-12-28 20:28:45,15.08833483,0.0001599,53.2177,293.5554,94.8199,265.2976,1.36e-05,-7.2e-07,0.0,0 STARLINK-4770,1 53849U 22114AH  23362.85330769 -.00000072  00000-0  13600-4 0  9990,2 53849  53.2177 293.5554 0001599  94.8199 265.2976 15.08833483 71922,6917.9,95.438,540.871,538.659,0.0
53849.0,STARLINK-4770,PAYLOAD,2023-12-29 02:50:18,15.0884058,0.0001566,53.2172,292.3657,94.1025,266.0146,0.00012001,1.623e-05,0.0,0 STARLINK-4770,1 53849U 22114AH  23363.11826510  .00001623  00000-0  12001-3 0  9999,2 53849  53.2172 292.3657 0001566  94.1025 266.0146 15.08840580 71422,6917.879,95.438,540.827,538.66,0.0
